[{"OBJECT_NAME":"STARLINK-6265","OBJECT_ID":"2023-065BG","EPOCH":"2026-03-09T22:00:01.999584","MEAN_MOTION":15.1201219,"ECCENTRICITY":0.00014534,"INCLINATION":43.0004,"RA_OF_ASC_NODE":221.2056,"ARG_OF_PERICENTER":287.4514,"MEAN_ANOMALY":284.6853,"EPHEMERIS_TYPE":0,"CLASSIFICATION_TYPE":"U","NORAD_CAT_ID":56557,"ELEMENT_SET_NO":999,"REV_AT_EPOCH":557,"BSTAR":0.0051206166,"MEAN_MOTION_DOT":0.00090421,"MEAN_MOTION_DDOT":0},{"OBJECT_NAME":"CZ-6A DEB","OBJECT_ID":"2022-151ADD","EPOCH":"2026-03-09T18:20:47.462208","MEAN_MOTION":15.20298953,"ECCENTRICITY":0.00285544,"INCLINATION":98.6309,"RA_OF_ASC_NODE":152.6578,"ARG_OF_PERICENTER":173.2603,"MEAN_ANOMALY":186.9019,"EPHEMERIS_TYPE":0,"CLASSIFICATION_TYPE":"U","NORAD_CAT_ID":56285,"ELEMENT_SET_NO":999,"REV_AT_EPOCH":17182,"BSTAR":0.0066325049,"MEAN_MOTION_DOT":0.00148374,"MEAN_MOTION_DDOT":0}]
